ORS-5 SENSORSAT         
1 42921U 17050A   26068.65161006  .00003656  00000+0  21756-3 0  9991
2 42921   0.0472 167.0860 0010549  19.2794 173.6211 15.00514080466070
QPS-SAR-11 (YAMATSUMI-I)
1 64340U 25125A   26068.25519236  .00007204  00000+0  57385-3 0  9990
2 64340  42.0098  22.3823 0010044 210.0400 149.9850 15.00627459 40603
